GLOBALSTAR M001 [-]     
1 25162U 98008A   23274.53599970 -.00000063  00000+0  25542-3 0  9996
2 25162  52.0058 351.2519 0001597  35.4019 336.9255 12.38168418166444
GLOBALSTAR M004 [-]     
1 25163U 98008B   23275.43501226 -.00000061  00000+0  23553-3 0  9992
2 25163  51.9981 156.9893 0003223 359.9574 170.9581 12.63338755182943
GLOBALSTAR M002 [-]     
1 25164U 98008C   23275.67601866 -.00000067  00000+0  18813-3 0  9999
2 25164  52.0048   3.5342 0001811  90.5515 269.5512 11.61495376111682
GLOBALSTAR M003 [-]     
1 25165U 98008D   23275.80962994  .00000026  00000+0  12299-2 0  9992
2 25165  51.9732  95.1543 0008615 116.9210 255.5957 12.11941168157729
GLOBALSTAR M014 [-]     
1 25306U 98023A   23275.81212997 -.00000060  00000+0  32405-3 0  9999
2 25306  51.9837 299.5228 0000668 303.8911 226.5988 11.65460321118473
GLOBALSTAR M006 [-]     
1 25307U 98023B   23275.85389515 -.00000063  00000+0  26404-3 0  9990
2 25307  51.9959 328.5938 0003758  71.9727 101.5236 11.58154081144710
GLOBALSTAR M015 [-]     
1 25308U 98023C   23275.64151424 -.00000028  00000+0  10339-2 0  9994
2 25308  51.9846  39.0202 0012937  50.8196 322.5641 11.48850819122788
GLOBALSTAR M008 [-]     
1 25309U 98023D   23274.96162354 -.00000043  00000+0  41792-3 0  9998
2 25309  51.9958 207.7766 0002352 312.3564 123.4154 12.36028797160652
